0 INTELSAT 9 (PAS 9)
1 26451U 00043A   20065.38984639 -.00000261  00000-0  00000+0 0  9997
2 26451   5.4866  66.3511 0004675 280.5314 282.6890  1.00100147 71834
0 BLOCK DM-SL R/B
1 26452U 00043B   20064.73243663 +.00000023 +00000-0 +00000-0 0  9997
2 26452 002.0723 359.9257 6713237 084.4287 107.8979 02.16746686154880
0 CZ-4 DEB
1 26454U 99057KZ  20064.75745896 +.00000427 +00000-0 +10730-3 0  9991
2 26454 098.4629 058.5428 0075141 031.4075 141.9340 14.54760422036434
0 CLUSTER II-FM5
1 26463U 00045A   20067.61141991 -.00000204  00000-0  00000+0 0  9993
2 26463 135.0824 341.5796 5140915 186.4283 359.8377  0.44197974 22470
0 BRAZILSAT B4
1 26469U 00046A   20065.59365910 -.00000177  00000-0  00000+0 0  9993
2 26469   3.7611  79.1633 0003200 268.4843 297.8486  1.00272455 71622
0 BRAZILSAT B4
1 26469U 00046A   20064.58868760 -.00000174 +00000-0 +00000-0 0  9990
2 26469 003.7588 079.1701 0003169 267.0451 296.4981 01.00272768071942
0 NILESAT 102
1 26470U 00046B   20064.61412289 -.00000072 +00000-0 +00000-0 0  9994
2 26470 003.8350 078.8289 0006141 309.3821 031.0098 00.98042449022038
0 TITAN 4B R/B
1 26474U 00047B   20065.14882771  .00000083  00000-0  18143-4 0  9997
2 26474  67.9958   2.7942 0059851 308.9639  50.6178 14.95921453 63727
0 SL-12 R/B(2)
1 26480U 00049D   20065.29424534 -.00000143  00000-0  00000+0 0  9997
2 26480  13.0085  26.4766 0019718 332.8803 218.8800  0.98192810 69867
0 SL-12 R/B(2)
1 26486U 00051D   20065.50504057 -.00000059  00000-0  00000+0 0  9995
2 26486  62.7076  62.0972 7450919 268.0406 117.4682  1.45765486103776
0 EUROBIRD 4A(EUTELSAT W1)
1 26487U 00052A   20064.67595102 -.00000164 +00000-0 +00000-0 0  9993
2 26487 006.5420 062.5749 0014576 254.9726 274.3083 00.98181433070648
0 ARIANE 44P R/B
1 26488U 00052B   20064.24226847 -.00000165 +00000-0 +74661-4 0  9993
2 26488 006.9570 179.2515 7218879 005.3322 359.2710 02.29584762160429
0 ARIANE 44P R/B
1 26488U 00052B   20065.54883005 -.00000178  00000-0  73838-4 0  9991
2 26488   6.9568 178.7109 7218922   6.3920 359.1399  2.29584891160428
0 ARIANE 44LP R/B
1 26490U 00046D   20065.26816816  .00000675  00000-0  22321-3 0  9993
2 26490   2.7115 141.9970 6971197 124.1330 321.5230  2.65994605174963
0 ARIANE 44LP R/B
1 26490U 00046D   20064.51714478 +.00000652 +00000-0 +23405-3 0  9990
2 26490 002.7093 142.4553 6971287 123.3062 322.3591 02.65993885174962
0 ASTRA 2B
1 26494U 00054A   20064.61098240 +.00000115 +00000-0 +00000-0 0  9993
2 26494 004.2872 074.4507 0005156 267.8261 060.0902 01.00274720023865
0 ASTRA 2B
1 26494U 00054A   20065.61599149  .00000113  00000-0  00000+0 0  9995
2 26494   4.2895  74.4451 0005181 269.5473  61.1790  1.00274979 71226
0 AMC-7 (GE-7)
1 26495U 00054B   20064.63092756 +.00000081 +00000-0 +00000-0 0  9994
2 26495 001.1173 097.0121 0002489 274.6461 084.8448 00.99130409071205
0 AMC-7 (GE-7)
1 26495U 00054B   20064.71577045 +.00000082 +00000-0 +00000-0 0  9993
2 26495 001.1175 097.0108 0002491 274.7453 115.0253 00.99130421071213
0 ARIANE 5 R/B
1 26496U 00054C   20064.80937971 -.00000096  00000-0 -43683-3 0  9996
2 26496   7.5084   0.6285 7174985  32.0941 355.9812  2.24147753159490
0 ARIANE 5 R/B
1 26496U 00054C   20064.36329928 -.00000086 +00000-0 -41448-3 0  9990
2 26496 007.5083 000.7906 7174884 031.7712 356.0277 02.24147809159455
0 TBA - TO BE ASSIGNED
1 26503U 81021E   20064.81514069 -.00000032  00000-0  45955-4 0  9992
2 26503  64.9584 204.3649 0064391 282.9856 150.9846 13.91046220 13910
0 TBA - TO BE ASSIGNED
1 26512U 81021P   20064.75548703 -.00000014 +00000-0 +59691-4 0  9999
2 26512 064.9654 201.3097 0064511 268.9753 157.0481 13.91306441334111
0 TBA - TO BE ASSIGNED
1 26513U 84069E   20064.57828997 -.00000041 +00000-0 +39255-4 0  9995
2 26513 065.0537 139.4705 0031074 060.6582 003.8554 13.90426925338994
0 TBA - TO BE ASSIGNED
1 26513U 84069E   20065.58591528 -.00000034  00000-0  44469-4 0  9999
2 26513  65.0535 136.8382 0031112  60.1361   7.7333 13.90427020 16793
0 COSMOS 1579 COOLANT
1 26517U 84069J   20064.80971156 -.00000054  00000-0  28738-4 0  9999
2 26517  65.0507 141.5457 0029893  73.0446  34.5241 13.90176884 36441
0 COSMOS 1579 COOLANT
1 26517U 84069J   20064.50295640 -.00000055 +00000-0 +28231-4 0  9992
2 26517 065.0508 142.3468 0029880 073.2120 299.2647 13.90176850336143
0 COSMOS 1579 COOLANT
1 26520U 84069M   20064.69290834 -.00000051 +00000-0 +31255-4 0  9992
2 26520 065.0482 149.6480 0029034 085.8035 352.1948 13.89995366341246
0 COSMOS 1579 COOLANT
1 26520U 84069M   20065.62669160 -.00000049  00000-0  32869-4 0  9997
2 26520  65.0481 147.2100 0029032  85.3041 345.0072 13.89995437 14603
0 TITAN 3C TRANSTAGE DEB
1 26525U 65108AL  20064.24392167 -.00000227  00000-0 -14718-2 0  9992
2 26525  26.2594 111.4889 6714953 100.0332 353.7782  2.81554628206280
0 ARIANE 1 DEB
1 26534U 79104Q   20065.04753636  .00000314  00000-0  10222-2 0  9995
2 26534  16.1329  56.9037 7027424 352.4267   0.8494  2.49077435178821
0 NOAA 16
1 26536U 00055A   20065.12406577 -.00000002  00000-0  21920-4 0  9998
2 26536  98.7444 136.6535 0010913  29.4732 330.7054 14.13246506  3018
0 NOAA 16
1 26536U 00055A   20064.69927424 -.00000013 +00000-0 +16294-4 0  9998
2 26536 098.7445 136.2384 0010933 030.6507 329.5302 14.13246477299446
0 SAUDISAT 1A
1 26545U 00057A   20064.54613061 -.00000046 +00000-0 +12800-4 0  9998
2 26545 064.5527 251.3561 0055907 267.6318 091.8388 14.85042986051544
0 SAUDISAT 1A
1 26545U 00057A   20064.95018067 -.00000011  00000-0  16755-4 0  9993
2 26545  64.5527 250.1021 0055908 267.5650  91.9056 14.85043252 51608
0 MEGSAT 1
1 26546U 00057B   20065.50822464  .00000056  00000-0  21848-4 0  9997
2 26546  64.5534 108.1772 0046731 257.7815 101.8059 14.90976636 54581
0 UNISAT
1 26547U 00057C   20065.71075156  .00000079  00000-0  24404-4 0  9995
2 26547  64.5506 160.6154 0058819 269.0613  90.3757 14.90367662 53499
0 UNISAT
1 26547U 00057C   20064.30162805 +.00000066 +00000-0 +23170-4 0  9992
2 26547 064.5507 165.0255 0058812 269.2834 090.1536 14.90366877053042
0 SAUDISAT 1B
1 26549U 00057E   20064.60143318 -.00000053 +00000-0 +12164-4 0  9993
2 26549 064.5510 291.9414 0059633 271.5810 087.8466 14.83633349050478
0 SAUDISAT 1B
1 26549U 00057E   20065.67992373 -.00000054  00000-0  12053-4 0  9992
2 26549  64.5508 288.6015 0059633 271.4106  88.0170 14.83633539 50872
0 NSS 11 (AAP-1)
1 26554U 00059A   20065.58322156  .00000018  00000-0  00000+0 0  9999
2 26554   0.0532 300.5276 0002517  45.1392 204.0430  1.00271368 71162
0 NSS 11 (AAP-1)
1 26554U 00059A   20064.72688215 +.00000021 +00000-0 +00000-0 0  9990
2 26554 000.0543 299.5899 0002497 043.8791 257.1162 01.00271300018288
0 NSAT 110
1 26559U 00060A   20064.64077378 +.00000010 +00000-0 +00000-0 0  9998
2 26559 001.0043 094.9477 0006139 298.5989 259.8465 00.99178164071053
0 HETE 2
1 26561U 00061A   20065.65723489  .00001299  00000-0  25120-4 0  9999
2 26561   1.9486 141.0504 0017814 144.1252 215.9988 15.08127725 64904
0 PEGASUS R/B
1 26562U 00061B   20064.34304273 +.00001332 +00000-0 +25475-4 0  9992
2 26562 001.9618 042.3076 0016658 335.6635 024.2621 15.09543579297853
0 COSMOS 2374 (GLONASS)
1 26566U 00063C   20064.61353910 -.00000022 +00000-0 +00000-0 0  9999
2 26566 065.6127 031.0960 0069091 217.8667 357.3684 02.13099547150849
0 COSMOS 2374 (GLONASS)
1 26566U 00063C   20065.58974910 -.00000024  00000-0  00000+0 0  9996
2 26566  65.6130  31.0631 0069091 217.8590  26.2780  2.13099530150912
0 USA 153
1 26575U 00065A   20064.69348497 -.00000327 +00000-0 +00000-0 0  9991
2 26575 007.7257 050.4683 0001599 306.5216 189.7424 01.00265283009919
0 IABS R/B
1 26577U 00065C   20065.58554852  .00000089  00000-0  00000+0 0  9999
2 26577  13.2668  19.3640 0054294 228.2348 131.3292  1.01179190  3004
0 THURAYA 1
1 26578U 00066A   20064.54171708 -.00000015 +00000-0 +00000-0 0  9992
2 26578 007.6170 026.0370 0013534 321.2035 042.9161 00.98985825070443
0 AMC-6 (GE-6)
1 26580U 00067A   20065.59549104 -.00000222  00000-0  00000+0 0  9990
2 26580   0.0517 302.6034 0002685  48.1494 304.3986  1.00272506 70974
0 INTELSAT 12 (PAS 12)
1 26590U 00068A   20065.62488955  .00000006  00000-0  00000+0 0  9991
2 26590   2.6888  87.1139 0003378 271.3092  94.5893  1.00272730 70793
0 INTELSAT 12 (PAS 12)
1 26590U 00068A   20064.71577045 +.00000008 +00000-0 +00000-0 0  9992
2 26590 002.6866 087.1215 0003317 268.6060 129.1034 01.00272708028702
0 INTELSAT 12 (PAS 12)
1 26590U 00068A   20064.63350517 +.00000009 +00000-0 +00000-0 0  9997
2 26590 002.6864 087.1222 0003314 268.4989 099.5130 01.00272703028705
0 ARIANE 44LP R/B
1 26591U 00068B   20065.30556452  .00002650  00000-0  68652-3 0  9993
2 26591   6.9245  26.6713 6729439 278.8583  16.0637  2.99919687187613
0 COSMOS 1823 DEB
1 26601U 87020DT  20065.50974473  .00000003  00000-0  15138-3 0  9998
2 26601  73.5993 242.5735 0028962 291.1935 101.8970 12.41258396995345
0 ARIANE 5 R/B
1 26612U 00072E   20065.38639483 -.00000512  00000-0  96828-3 0  9998
2 26612   6.8298  84.6633 7346413  54.2970 353.7488  2.01743048142304
0 DELTA 1 DEB
1 26614U 78026HU  20065.34478087  .00000674  00000-0  24095-3 0  9996
2 26614  98.6548 191.4015 0102380  56.2015   1.6401 14.34429681  4384
0 SAC C
1 26620U 00075B   20065.73425453  .00000027  00000-0  15657-4 0  9991
2 26620  98.2536  14.9328 0001235  74.3652 285.7683 14.58885446 25982
0 SAC C
1 26620U 00075B   20064.77404966 +.00000026 +00000-0 +15361-4 0  9991
2 26620 098.2535 013.9787 0001250 074.2640 285.8697 14.58885278025824
0 MUNIN
1 26621U 00075C   20064.56685441 -.00000938 +00000-0 -84417-3 0  9999
2 26621 095.4095 008.0320 0713403 044.7981 320.8525 13.04189227917611
